OSCAR 3 (OSCAR III)     
1 01293U 65016F   09162.10319554 -.00000015  00000-0  24343-4 0  5431
2 01293  70.0693 184.5627 0018819 184.3464 175.7487 14.04707836258950
OSCAR 5 (AO-5)          
1 04321U 70008B   09161.49737696 -.00000031  00000-0  10000-3 0  1714
2 04321 102.1320 172.4954 0027840 353.3283   6.7412 12.52156636799924
OSCAR 6 (AO-6)          
1 06236U 72082B   09162.08844034 -.00000027  00000-0  10000-3 0  1610
2 06236 101.3906 175.7152 0003619 266.1817  93.8843 12.53077439676642
OSCAR 7 (AO-7)          
1 07530U 74089B   09161.62441787 -.00000027  00000-0  10000-3 0  5001
2 07530 101.4264 186.5422 0011483 281.6349  78.3434 12.53575792581899
OSCAR 8 (AO-8)          
1 10703U 78026B   09162.19272548  .00000117  00000-0  11022-3 0  5163
2 10703  98.8296 207.6039 0006530 177.5874 182.5326 13.98836830595189
PHASE 3B (AO-10)        
1 14129U 83058B   09159.93782627 -.00000320  00000-0  10000-3 0  6648
2 14129  25.8820 152.8731 6007584 229.3892  60.4150  2.05871637167487
UOSAT 2 (UO-11)         
1 14781U 84021B   09161.79046756 -.00000134  00000-0 -10684-4 0  9811
2 14781  98.1069 206.2197 0009085   5.5173 354.6079 14.79714915356888
JAS-1 (FO-12)           
1 16909U 86061B   09162.14097225 -.00000083  00000-0  10000-3 0  5671
2 16909  50.0157 180.4782 0011250 189.5133 170.5489 12.44453096 38221
UOSAT 3 (UO-14)         
1 20437U 90005B   09162.32676367 -.00000006  00000-0  13439-4 0  9449
2 20437  98.3409 120.7476 0010013 182.0743 178.0403 14.31545521 12218
UOSAT 4 (UO-15)         
1 20438U 90005C   09161.41853734 -.00000014  00000-0  10627-4 0  4354
2 20438  98.4004 112.9254 0009094 214.9628 145.0957 14.30445338 11505
PACSAT (AO-16)          
1 20439U 90005D   09161.42555313 -.00000010  00000-0  11703-4 0  6240
2 20439  98.2772 130.1354 0010660 186.1220 173.9846 14.31825864 12187
DOVE (DO-17)            
1 20440U 90005E   09161.35791231  .00000005  00000-0  17149-4 0  3380
2 20440  98.2521 134.8090 0010935 181.0029 179.1141 14.32129468 12314
WEBERSAT (WO-18)        
1 20441U 90005F   09161.42987989  .00000002  00000-0  16115-4 0  8470
2 20441  98.2594 133.5377 0011386 185.2215 174.8849 14.31894040 12257
LUSAT (LO-19)           
1 20442U 90005G   09161.90285674 -.00000058  00000-0 -63654-5 0  5433
2 20442  98.2403 137.8782 0011961 181.1000 179.0168 14.32061261 12411
JAS-1B (FO-20)          
1 20480U 90013C   09161.86811296 -.00000045  00000-0 -29257-4 0  1649
2 20480  99.0715  83.7366 0540666 184.6259 174.9733 12.83360542906094
INFORMATOR 1 & RS-14    
1 21087U 91006A   09161.76794692  .00000028  00000-0  13818-4 0  2944
2 21087  82.9429  50.7833 0034098 304.2557  55.5366 13.75043910921533
COSMOS 2123 & RS-12/13  
1 21089U 91007A   09161.78338224 -.00000004  00000-0 -19535-4 0  1761
2 21089  82.9218 271.3840 0029331 350.7180   9.3438 13.74485908920310
UOSAT 5 (UO-22)         
1 21575U 91050B   09161.85906832  .00000046  00000-0  28547-4 0  5708
2 21575  98.4450 110.8632 0008179  43.3600 316.8235 14.39676016939792
KITSAT 1 (KO-23)        
1 22077U 92052B   09161.45487407 -.00000037  00000-0  10000-3 0  7681
2 22077  66.0861 340.7518 0014965 281.6335  78.3006 12.86448500790657
ARASENE (AO-24)         
1 22654U 93031B   09159.99668993 -.00000121  00000-0  10000-3 0  2709
2 22654   5.0736 337.6247 2869997 160.1911 213.7366  1.42205727 79007
EYESAT-1 (AO-27)        
1 22825U 93061C   09161.42503486 -.00000049  00000-0 -24458-5 0  2634
2 22825  98.4368 115.0620 0007429 285.5908  74.4445 14.29266694818940
ITAMSAT (IO-26)         
1 22826U 93061D   09161.83639075 -.00000008  00000-0  13423-4 0  9904
2 22826  98.4292 116.2108 0008002 281.4258  78.6034 14.29518976819104
KITSAT 2 (KO-25)        
1 22828U 93061F   09161.45211784 -.00000004  00000-0  15030-4 0  1978
2 22828  98.4233 115.7474 0009013 252.3333 107.6853 14.29818902787327
POSAT (PO-28)           
1 22829U 93061G   09161.29783257  .00000036  00000-0  30327-4 0  2353
2 22829  98.4176 116.7293 0008847 248.2334 111.7926 14.30217385819315
RADIO ROSTO (RS-15)     
1 23439U 94085A   09161.77133355 -.00000039  00000-0  10000-3 0  2077
2 23439  64.8168 275.1903 0148007  52.9754 308.4604 11.27553455595399
JAS-2 (FO-29)           
1 24278U 96046B   09161.71704361 -.00000056  00000-0 -20208-4 0   624
2 24278  98.5545  36.6217 0351015   7.3079 353.2992 13.52943339632878
UNAMSAT-2 (MO-30)       
1 24305U 96052B   09161.54745367  .00000029  00000-0  15370-4 0  1379
2 24305  82.9351 358.9523 0028524 273.9828  85.8071 13.73570780639760
TMSAT-1 (TO-31)         
1 25396U 98043C   09162.02506711  .00000098  00000-0  60633-4 0  4241
2 25396  98.3307 190.3172 0001654 239.0959 121.0061 14.23779409567424
TECHSAT 1B (GO-32)      
1 25397U 98043D   09162.02626283  .00000091  00000-0  58515-4 0  9142
2 25397  98.3263 184.6974 0000238 292.7442  67.3727 14.23160221567250
SEDSAT 1 (SO-33)        
1 25509U 98061B   09161.83410350 -.00000044  00000-0 -22804-4 0  4722
2 25509  31.4340  88.4192 0355082 282.8715  73.2525 14.28252517554922
PAN SAT (PO-34)         
1 25520U 98064B   09161.54720616  .00000261  00000-0  30643-5 0  2644
2 25520  28.4603 299.3282 0005927 229.8958 130.1119 15.17343898587645
ISS (ZARYA)             
1 25544U 98067A   09161.51089941  .00015706  00000-0  11388-3 0   112
2 25544  51.6406 341.1646 0009228  98.8703 312.6668 15.73580432604904
SUNSAT (SO-35)          
1 25636U 99008C   09161.39940359  .00000019  00000-0  13284-4 0  3296
2 25636  96.4475 347.0966 0146550 243.2592 115.3535 14.43465288542124
UOSAT 12 (UO-36)        
1 25693U 99021A   09161.44233940 -.00000094  00000-0  62212-5 0  9332
2 25693  64.5559 136.5636 0005642 211.0935 148.9855 14.78750697546840
OPAL (OO-38)            
1 26063U 00004C   09161.95020752 -.00000045  00000-0  48971-5 0  5279
2 26063 100.2089 307.3629 0036543 279.2527  80.4521 14.35865028491055
SAUDISAT 1A (SO-41)     
1 26545U 00057A   09161.73444419 -.00000051  00000-0  12802-4 0  2725
2 26545  64.5546 137.4536 0056883 279.0412  80.4273 14.80588500470248
TIUNGSAT-1 (MO-46)      
1 26548U 00057D   09161.23420730 -.00000138  00000-0  20018-5 0  4135
2 26548  64.5566 102.2526 0052051 274.3555  85.1556 14.83367162470924
SAUDISAT 1B (SO-42)     
1 26549U 00057E   09162.02984934 -.00000107  00000-0  57061-5 0  3510
2 26549  64.5555 153.1555 0060569 283.0161  76.4271 14.79444203469958
PHASE 3D (AO-40)        
1 26609U 00072B   09161.28601059 -.00000227  00000-0  10000-3 0  2393
2 26609   9.5620  15.3857 7963341 212.2509  53.8429  1.25585709 39533
PCSAT (NO-44)           
1 26931U 01043C   09161.84785233  .00000123  00000-0  80480-4 0  1897
2 26931  67.0535  80.6768 0005477 271.9143  88.1321 14.29559301401674
SAPPHIRE (NO-45)        
1 26932U 01043D   09162.23134628 -.00000099  00000-0 -61938-5 0  1935
2 26932  67.0517  79.6430 0003991 262.2236  97.8410 14.29609729401771
IDEFIX & ARIANE 42P R/B 
1 27422U 02021B   09161.30667805  .00000147  00000-0  75768-4 0   646
2 27422  98.5218 240.7168 0011594 241.7290 118.2732 14.28496148368429
RUBIN-2 & SAFIR-M       
1 27605U 02058A   09161.75446438 -.00000039  00000-0  15854-4 0  9263
2 27605  64.5592  31.7446 0068056 207.8486 151.8983 14.72403312347992
SAUDISAT 1C (SO-50)     
1 27607U 02058C   09160.77986587 -.00000268  00000-0 -19533-4 0  9050
2 27607  64.5602  47.5872 0068011 207.4197 152.3261 14.71439307347582
DTUSAT                  
1 27842U 03031C   09160.64340973  .00000022  00000-0  30141-4 0  5737
2 27842  98.7046 170.8898 0009606 139.8699 220.3194 14.20982145308273
CUTE-1 (CO-55)          
1 27844U 03031E   09160.73783787  .00000030  00000-0  34266-4 0  5970
2 27844  98.7120 170.0082 0010218 159.5541 200.6034 14.20641144308209
AAU CUBESAT             
1 27846U 03031G   09160.57261382  .00000039  00000-0  38018-4 0  5086
2 27846  98.7040 170.8131 0009717 140.2209 219.9675 14.20982342308263
CANX-1                  
1 27847U 03031H   09160.58108734  .00000000  00000-0  20245-4 0  5237
2 27847  98.7043 170.8135 0009613 139.2181 220.9697 14.20964343308215
CUBESAT XI-IV (CO-57)   
1 27848U 03031J   09161.55961430  .00000047  00000-0  42290-4 0  5444
2 27848  98.7139 169.8799 0009667 161.6771 198.4766 14.20443252308283
MOZHAYETS 4 (RS-22)     
1 27939U 03042A   09161.42907945  .00000144  00000-0  36766-4 0  8110
2 27939  97.9455  36.5457 0014073 149.7038 210.4983 14.63322077304580
ECHO (AO-51)            
1 28375U 04025K   09161.92203497  .00000012  00000-0  16131-4 0  4094
2 28375  98.0517 171.8908 0083855 143.4264 217.2694 14.40644385260057
HAMSAT (VO-52)          
1 28650U 05017B   09161.36338040  .00000168  00000-0  27785-4 0  2450
2 28650  97.7442 223.1708 0028075  53.9138 306.4651 14.81592580221632
UWE-1                   
1 28892U 05043C   09162.20998843  .00000039  00000-0  17648-4 0  3583
2 28892  98.0566  52.4658 0017626  10.1777 349.9777 14.59741917192972
SSETI EXPRESS (XO-53)   
1 28894U 05043E   09161.69212536  .00000042  00000-0  18395-4 0  4838
2 28894  98.0587  52.2054 0018059  13.9306 346.2394 14.59671193192901
CUBESAT XI-V (CO-58)    
1 28895U 05043F   09161.68932929  .00000118  00000-0  34316-4 0  3242
2 28895  98.0610  52.4892 0018101  12.5064 347.6592 14.59773913192789
NCUBE-2                 
1 28897U 05043H   09161.26834358  .00000088  00000-0  27844-4 0  8705
2 28897  98.0585  51.9888 0017718  14.6400 345.5300 14.59951767185018
CUTE-1.7+APD (CO-56)    
1 28941U 06005C   09162.09415282  .00072258  43526-5  24683-3 0  1531
2 28941  98.1364 335.3822 0086855 155.5126 205.0282 15.83826971186284
PEHUENSAT 1             
1 29712U 07001D   09162.13695415  .00000538  00000-0  76828-4 0  5572
2 29712  97.8288 218.6896 0013102 298.5813  61.4087 14.80568619130578
DELFI-C3                
1 32789U 08021G   09162.21631185  .00000643  00000-0  88161-4 0  3901
2 32789  97.9478 226.3071 0016821  53.7333 306.5425 14.81719367 60567
PRISM                   
1 33493U 09002B   09162.08473909  .00000265  00000-0  41468-4 0  4626
2 33493  98.0569 274.2669 0018769 261.3528  98.5564 14.80681163 20563
STARS                   
1 33498U 09002G   09162.15053884  .00000138  00000-0  30337-4 0  4256
2 33498  98.0379 271.9657 0012817 350.4397   9.6566 14.71313854 20429
KKS-1                   
1 33499U 09002H   09162.14079814  .00000051  00000-0  16483-4 0  4314
2 33499  98.0398 271.8405 0010018 348.8176  11.2807 14.70686914 20413
